{"type": "FeatureCollection", "features": [ {"type": "Feature", "properties": {"norad_id": 17070, "name": "POLAR BEAR", "group": "nnss", "lat": -74.21757128075663, "lon": -178.02462684453602, "alt_km": 1017.01278719332, "timestamp": "2025-12-23T18:59:32.236892+00:00", "meta": {"OBJECT_NAME": "POLAR BEAR", "OBJECT_ID": "1986-088A", "EPOCH": "2025-12-23T00:55:53.242752", "MEAN_MOTION": 13.7525287, "ECCENTRICITY": 0.00412913, "INCLINATION": 89.6171, "RA_OF_ASC_NODE": 183.3614, "ARG_OF_PERICENTER": 89.6168, "MEAN_ANOMALY": 72.8852, "EPHEMERIS_TYPE": 0, "CLASSIFICATION_TYPE": "U", "NORAD_CAT_ID": 17070, "ELEMENT_SET_NO": 999, "REV_AT_EPOCH": 96120, "BSTAR": 9.1661902e-05, "MEAN_MOTION_DOT": 1e-06, "MEAN_MOTION_DDOT": 0}, "tle": {"line1": "1 17070U 86088A   25357.03881068  .00000100  00000+0  91662-4 0  9999", "line2": "2 17070  89.6171 183.3614 0041291  89.6168  72.8852 13.75252870961200"}}, "geometry": {"type": "Point", "coordinates": [-178.02462684453602, -74.21757128075663]}}, {"type": "Feature", "properties": {"norad_id": 18361, "name": "OSCAR 27", "group": "nnss", "lat": 56.92308943584429, "lon": 79.1113099603767, "alt_km": 1140.0668339877348, "timestamp": "2025-12-23T18:59:32.236901+00:00", "meta": {"OBJECT_NAME": "OSCAR 27", "OBJECT_ID": "1987-080A", "EPOCH": "2025-12-23T04:25:12.444384", "MEAN_MOTION": 13.44908817, "ECCENTRICITY": 0.01037887, "INCLINATION": 90.3738, "RA_OF_ASC_NODE": 79.6629, "ARG_OF_PERICENTER": 193.7068, "MEAN_ANOMALY": 166.1258, "EPHEMERIS_TYPE": 0, "CLASSIFICATION_TYPE": "U", "NORAD_CAT_ID": 18361, "ELEMENT_SET_NO": 999, "REV_AT_EPOCH": 87697, "BSTAR": 0.0001802801, "MEAN_MOTION_DOT": 1.17e-06, "MEAN_MOTION_DDOT": 0}, "tle": {"line1": "1 18361U 87080A   25357.18417181  .00000117  00000+0  18028-3 0  9995", "line2": "2 18361  90.3738  79.6629 0103788 193.7068 166.1258 13.44908817876972"}}, "geometry": {"type": "Point", "coordinates": [79.1113099603767, 56.92308943584429]}}, {"type": "Feature", "properties": {"norad_id": 18362, "name": "OSCAR 29", "group": "nnss", "lat": 51.40361587008719, "lon": 79.67534348507637, "alt_km": 1163.0066423493618, "timestamp": "2025-12-23T18:59:32.236912+00:00", "meta": {"OBJECT_NAME": "OSCAR 29", "OBJECT_ID": "1987-080B", "EPOCH": "2025-12-23T04:43:56.481600", "MEAN_MOTION": 13.44450399, "ECCENTRICITY": 0.0104605, "INCLINATION": 90.375, "RA_OF_ASC_NODE": 80.1232, "ARG_OF_PERICENTER": 216.8758, "MEAN_ANOMALY": 200.8691, "EPHEMERIS_TYPE": 0, "CLASSIFICATION_TYPE": "U", "NORAD_CAT_ID": 18362, "ELEMENT_SET_NO": 999, "REV_AT_EPOCH": 87650, "BSTAR": 0.00018208714, "MEAN_MOTION_DOT": 1.17e-06, "MEAN_MOTION_DDOT": 0}, "tle": {"line1": "1 18362U 87080B   25357.19718150  .00000117  00000+0  18209-3 0  9998", "line2": "2 18362  90.3750  80.1232 0104605 216.8758 200.8691 13.44450399876509"}}, "geometry": {"type": "Point", "coordinates": [79.67534348507637, 51.40361587008719]}}, {"type": "Feature", "properties": {"norad_id": 19070, "name": "OSCAR 23", "group": "nnss", "lat": -67.3870751137157, "lon": -164.0347935858226, "alt_km": 1179.9578982723524, "timestamp": "2025-12-23T18:59:32.236921+00:00", "meta": {"OBJECT_NAME": "OSCAR 23", "OBJECT_ID": "1988-033A", "EPOCH": "2025-12-23T01:46:21.934272", "MEAN_MOTION": 13.27788834, "ECCENTRICITY": 0.01903534, "INCLINATION": 90.3204, "RA_OF_ASC_NODE": 16.7126, "ARG_OF_PERICENTER": 151.2472, "MEAN_ANOMALY": 266.342, "EPHEMERIS_TYPE": 0, "CLASSIFICATION_TYPE": "U", "NORAD_CAT_ID": 19070, "ELEMENT_SET_NO": 999, "REV_AT_EPOCH": 82390, "BSTAR": 0.00016035197, "MEAN_MOTION_DOT": 8.9e-07, "MEAN_MOTION_DDOT": 0}, "tle": {"line1": "1 19070U 88033A   25357.07386498  .00000089  00000+0  16035-3 0  9990", "line2": "2 19070  90.3204  16.7126 0190353 151.2472 266.3420 13.27788834823909"}}, "geometry": {"type": "Point", "coordinates": [-164.0347935858226, -67.3870751137157]}}, {"type": "Feature", "properties": {"norad_id": 19071, "name": "OSCAR 32", "group": "nnss", "lat": 0.47437742592282184, "lon": 16.86481158334341, "alt_km": 1257.7846751377947, "timestamp": "2025-12-23T18:59:32.236931+00:00", "meta": {"OBJECT_NAME": "OSCAR 32", "OBJECT_ID": "1988-033B", "EPOCH": "2025-12-23T03:03:44.614080", "MEAN_MOTION": 13.27955615, "ECCENTRICITY": 0.01891185, "INCLINATION": 90.3208, "RA_OF_ASC_NODE": 16.8468, "ARG_OF_PERICENTER": 138.0201, "MEAN_ANOMALY": 292.8175, "EPHEMERIS_TYPE": 0, "CLASSIFICATION_TYPE": "U", "NORAD_CAT_ID": 19071, "ELEMENT_SET_NO": 999, "REV_AT_EPOCH": 82403, "BSTAR": 0.00014379305, "MEAN_MOTION_DOT": 8.1e-07, "MEAN_MOTION_DDOT": 0}, "tle": {"line1": "1 19071U 88033B   25357.12759970  .00000081  00000+0  14379-3 0  9997", "line2": "2 19071  90.3208  16.8468 0189118 138.0201 292.8175 13.27955615824033"}}, "geometry": {"type": "Point", "coordinates": [16.86481158334341, 0.47437742592282184]}}, {"type": "Feature", "properties": {"norad_id": 19223, "name": "NOVA 2", "group": "nnss", "lat": -0.06050697698844227, "lon": 78.25866056081965, "alt_km": 1154.628130615346, "timestamp": "2025-12-23T18:59:32.236943+00:00", "meta": {"OBJECT_NAME": "NOVA 2", "OBJECT_ID": "1988-052A", "EPOCH": "2025-12-22T19:59:41.866944", "MEAN_MOTION": 13.22936943, "ECCENTRICITY": 0.00297225, "INCLINATION": 89.9867, "RA_OF_ASC_NODE": 78.2599, "ARG_OF_PERICENTER": 349.0095, "MEAN_ANOMALY": 130.0034, "EPHEMERIS_TYPE": 0, "CLASSIFICATION_TYPE": "U", "NORAD_CAT_ID": 19223, "ELEMENT_SET_NO": 999, "REV_AT_EPOCH": 81081, "BSTAR": 0.00019678035, "MEAN_MOTION_DOT": 9.1e-07, "MEAN_MOTION_DDOT": 0}, "tle": {"line1": "1 19223U 88052A   25356.83312346  .00000091  00000+0  19678-3 0  9994", "line2": "2 19223  89.9867  78.2599 0029722 349.0095 130.0034 13.22936943810819"}}, "geometry": {"type": "Point", "coordinates": [78.25866056081965, -0.06050697698844227]}}, {"type": "Feature", "properties": {"norad_id": 19419, "name": "OSCAR 25", "group": "nnss", "lat": 42.58542180725706, "lon": -159.68897562415793, "alt_km": 1078.8967041196647, "timestamp": "2025-12-23T18:59:32.236958+00:00", "meta": {"OBJECT_NAME": "OSCAR 25", "OBJECT_ID": "1988-074A", "EPOCH": "2025-12-23T02:17:56.668992", "MEAN_MOTION": 13.42625235, "ECCENTRICITY": 0.00950503, "INCLINATION": 90.0337, "RA_OF_ASC_NODE": 20.2777, "ARG_OF_PERICENTER": 215.8861, "MEAN_ANOMALY": 162.583, "EPHEMERIS_TYPE": 0, "CLASSIFICATION_TYPE": "U", "NORAD_CAT_ID": 19419, "ELEMENT_SET_NO": 999, "REV_AT_EPOCH": 82779, "BSTAR": 0.00013648266, "MEAN_MOTION_DOT": 8.8e-07, "MEAN_MOTION_DDOT": 0}, "tle": {"line1": "1 19419U 88074A   25357.09579478  .00000088  00000+0  13648-3 0  9992", "line2": "2 19419  90.0337  20.2777 0095050 215.8861 162.5830 13.42625235827794"}}, "geometry": {"type": "Point", "coordinates": [-159.68897562415793, 42.58542180725706]}}, {"type": "Feature", "properties": {"norad_id": 19420, "name": "OSCAR 31", "group": "nnss", "lat": 20.656051070147402, "lon": 20.618479035176556, "alt_km": 1168.9056639597684, "timestamp": "2025-12-23T18:59:32.236975+00:00", "meta": {"OBJECT_NAME": "OSCAR 31", "OBJECT_ID": "1988-074B", "EPOCH": "2025-12-23T03:06:15.438240", "MEAN_MOTION": 13.42586375, "ECCENTRICITY": 0.00934358, "INCLINATION": 90.0354, "RA_OF_ASC_NODE": 20.6295, "ARG_OF_PERICENTER": 209.9326, "MEAN_ANOMALY": 212.9273, "EPHEMERIS_TYPE": 0, "CLASSIFICATION_TYPE": "U", "NORAD_CAT_ID": 19420, "ELEMENT_SET_NO": 999, "REV_AT_EPOCH": 82790, "BSTAR": 0.00012640096, "MEAN_MOTION_DOT": 8.2e-07, "MEAN_MOTION_DDOT": 0}, "tle": {"line1": "1 19420U 88074B   25357.12934535  .00000082  00000+0  12640-3 0  9992", "line2": "2 19420  90.0354  20.6295 0093435 209.9326 212.9273 13.42586375827904"}}, "geometry": {"type": "Point", "coordinates": [20.618479035176556, 20.656051070147402]}}]}